NORAD_CAT_ID,OBJECT_NAME,OBJECT_TYPE,EPOCH,MEAN_MOTION,ECCENTRICITY,INCLINATION,RA_OF_ASC_NODE,ARG_OF_PERICENTER,MEAN_ANOMALY,BSTAR,MEAN_MOTION_DOT,MEAN_MOTION_DDOT,TLE_LINE0,TLE_LINE1,TLE_LINE2,SEMIMAJOR_AXIS,PERIOD,APOGEE,PERIGEE,DECAYED
53742.0,STARLINK-4637,PAYLOAD,2023-10-23 22:33:22,15.08853499,0.0001808,53.219,199.5348,77.9293,282.1901,-5.1341e-06,-3.7e-06,0.0,0 STARLINK-4637,1 53742U 22107AU  23296.93984230 -.00000370  00000-0 -51341-5 0  9994,2 53742  53.2190 199.5348 0001808  77.9293 282.1901 15.08853499 63594,6917.839,95.437,540.955,538.453,0.0
53742.0,STARLINK-4637,PAYLOAD,2023-10-24 03:19:31,15.08861486,0.0001585,53.2173,198.6395,84.1609,275.9564,1.1225e-05,-1.09e-06,0.0,0 STARLINK-4637,1 53742U 22107AU  23297.13855407 -.00000109  00000-0  11225-4 0  9995,2 53742  53.2173 198.6395 0001585  84.1609 275.9564 15.08861486 62847,6917.815,95.436,540.776,538.583,0.0
53742.0,STARLINK-4637,PAYLOAD,2023-10-25 20:39:33,15.08843167,0.0001667,53.2173,190.9062,88.4702,271.6481,-1.0659e-05,-4.58e-06,0.0,0 STARLINK-4637,1 53742U 22107AU  23298.86080764 -.00000458  00000-0 -10659-4 0  9990,2 53742  53.2173 190.9062 0001667  88.4702 271.6481 15.08843167 63102,6917.871,95.437,540.889,538.582,0.0
53742.0,STARLINK-4637,PAYLOAD,2023-10-25 23:50:19,15.08845984,0.0001685,53.2175,190.3134,84.7722,275.3463,3.2041e-05,2.22e-06,0.0,0 STARLINK-4637,1 53742U 22107AU  23298.99328484  .00000222  00000-0  32041-4 0  9994,2 53742  53.2175 190.3134 0001685  84.7722 275.3463 15.08845984 63907,6917.862,95.437,540.893,538.561,0.0
53742.0,STARLINK-4637,PAYLOAD,2023-10-26 20:30:20,15.08845991,0.0001536,53.2165,186.4487,85.5572,274.5595,-2.1417e-06,-3.22e-06,0.0,0 STARLINK-4637,1 53742U 22107AU  23299.85440373 -.00000322  00000-0 -21417-5 0  9991,2 53742  53.2165 186.4487 0001536  85.5572 274.5595 15.08845991 64030,6917.862,95.437,540.79,538.664,0.0
53742.0,STARLINK-4637,PAYLOAD,2023-10-27 01:16:29,15.08856264,0.0001453,53.2169,185.5564,87.2574,272.8585,9.4042e-05,1.21e-05,0.0,0 STARLINK-4637,1 53742U 22107AU  23300.05311347  .00001210  00000-0  94042-4 0  9992,2 53742  53.2169 185.5564 0001453  87.2574 272.8585 15.08856264 63280,6917.831,95.437,540.701,538.691,0.0
53742.0,STARLINK-4637,PAYLOAD,2023-10-27 21:56:31,15.08837369,0.0001532,53.2171,181.6908,92.778,267.3387,2.6839e-05,1.39e-06,0.0,0 STARLINK-4637,1 53742U 22107AU  23300.91424907  .00000139  00000-0  26839-4 0  9992,2 53742  53.2171 181.6908 0001532  92.7780 267.3387 15.08837369 64195,6917.888,95.438,540.813,538.694,0.0
53742.0,STARLINK-4637,PAYLOAD,2023-10-27 23:31:54,15.08837125,0.000157,53.2175,181.3956,89.2161,270.9011,2.5779e-05,1.22e-06,0.0,0 STARLINK-4637,1 53742U 22107AU  23300.98048952  .00000122  00000-0  25779-4 0  9995,2 53742  53.2175 181.3956 0001570  89.2161 270.9011 15.08837125 63424,6917.889,95.438,540.84,538.668,0.0
53742.0,STARLINK-4637,PAYLOAD,2023-10-28 09:04:13,15.08835623,0.0001549,53.2178,179.611,91.329,268.788,-1.9346e-05,-5.96e-06,0.0,0 STARLINK-4637,1 53742U 22107AU  23301.37793226 -.00000596  00000-0 -19346-4 0  9990,2 53742  53.2178 179.6110 0001549  91.3290 268.7880 15.08835623 64265,6917.894,95.438,540.83,538.687,0.0
53742.0,STARLINK-4637,PAYLOAD,2023-10-28 21:47:18,15.08842232,0.0001761,53.2179,177.2325,114.1941,245.9235,3.7743e-05,3.13e-06,0.0,0 STARLINK-4637,1 53742U 22107AU  23301.90784826  .00000313  00000-0  37743-4 0  9991,2 53742  53.2179 177.2325 0001761 114.1941 245.9235 15.08842232 64345,6917.874,95.437,540.957,538.52,0.0
53742.0,STARLINK-4637,PAYLOAD,2023-10-29 00:58:04,15.0884846,0.0001385,53.2167,176.6365,89.5442,270.5709,4.4824e-05,4.26e-06,0.0,0 STARLINK-4637,1 53742U 22107AU  23302.04032461  .00000426  00000-0  44824-4 0  9991,2 53742  53.2167 176.6365 0001385  89.5442 270.5709 15.08848460 63586,6917.855,95.437,540.678,538.761,0.0
53742.0,STARLINK-4637,PAYLOAD,2023-10-29 08:54:59,15.0884488,0.000144,53.2157,175.1495,85.931,274.1847,7.6006e-05,9.22e-06,0.0,0 STARLINK-4637,1 53742U 22107AU  23302.37152408  .00000922  00000-0  76006-4 0  9999,2 53742  53.2157 175.1495 0001440  85.9310 274.1847 15.08844880 64417,6917.865,95.437,540.727,538.734,0.0
53742.0,STARLINK-4637,PAYLOAD,2023-10-29 21:38:04,15.08846789,0.0001433,53.2153,172.7709,82.6942,277.4213,0.00020286,2.943e-05,0.0,0 STARLINK-4637,1 53742U 22107AU  23302.90144543  .00002943  00000-0  20286-3 0  9992,2 53742  53.2153 172.7709 0001433  82.6942 277.4213 15.08846789 64492,6917.86,95.437,540.716,538.733,0.0
53742.0,STARLINK-4637,PAYLOAD,2023-10-30 08:45:47,15.08839884,0.0001281,53.2158,170.6893,89.008,271.1059,0.00010974,1.459e-05,0.0,0 STARLINK-4637,1 53742U 22107AU  23303.36512787  .00001459  00000-0  10974-3 0  9996,2 53742  53.2158 170.6893 0001281  89.0080 271.1059 15.08839884 63781,6917.881,95.438,540.632,538.86,0.0
53742.0,STARLINK-4637,PAYLOAD,2023-10-30 21:28:52,15.08836976,0.0001619,53.2164,168.3092,93.7073,266.4104,-3.0595e-05,-7.75e-06,0.0,0 STARLINK-4637,1 53742U 22107AU  23303.89505206 -.00000775  00000-0 -30595-4 0  9996,2 53742  53.2164 168.3092 0001619  93.7073 266.4104 15.08836976 64645,6917.89,95.438,540.875,538.635,0.0
53742.0,STARLINK-4637,PAYLOAD,2023-10-31 00:39:38,15.0883842,0.0001667,53.2166,167.7136,95.9785,264.1397,-4.4348e-06,-3.59e-06,0.0,0 STARLINK-4637,1 53742U 22107AU  23304.02753154 -.00000359  00000-0 -44348-5 0  9999,2 53742  53.2166 167.7136 0001667  95.9785 264.1397 15.08838420 64663,6917.885,95.438,540.903,538.597,0.0
53742.0,STARLINK-4637,PAYLOAD,2023-10-31 21:19:39,15.08842041,0.0001436,53.2162,163.8483,96.9667,263.1488,0.00012733,1.739e-05,0.0,0 STARLINK-4637,1 53742U 22107AU  23304.88865025  .00001739  00000-0  12733-3 0  9996,2 53742  53.2162 163.8483 0001436  96.9667 263.1488 15.08842041 64018,6917.874,95.437,540.733,538.746,0.0
53742.0,STARLINK-4637,PAYLOAD,2023-11-01 21:10:26,15.08845555,0.0001536,53.2162,159.3876,97.3003,262.8163,0.00023637,3.476e-05,0.0,0 STARLINK-4637,1 53742U 22107AU  23305.88224825  .00003476  00000-0  23637-3 0  9999,2 53742  53.2162 159.3876 0001536  97.3003 262.8163 15.08845555 64945,6917.863,95.437,540.791,538.666,0.0
53742.0,STARLINK-4637,PAYLOAD,2023-11-02 21:01:13,15.0883985,0.0001327,53.2161,154.9297,93.1152,266.9992,2.1485e-06,-2.54e-06,0.0,0 STARLINK-4637,1 53742U 22107AU  23306.87585167 -.00000254  00000-0  21485-5 0  9991,2 53742  53.2161 154.9297 0001327  93.1152 266.9992 15.08839850 64316,6917.881,95.438,540.664,538.828,0.0
53742.0,STARLINK-4637,PAYLOAD,2023-11-03 14:30:28,15.0883953,0.0001159,53.2154,151.6574,95.3644,264.7481,1.8141e-05,1e-08,0.0,0 STARLINK-4637,1 53742U 22107AU  23307.60449200  .00000001  00000-0  18141-4 0  9993,2 53742  53.2154 151.6574 0001159  95.3644 264.7481 15.08839530 65206,6917.882,95.438,540.549,538.945,0.0
53742.0,STARLINK-4637,PAYLOAD,2023-11-03 20:52:00,15.08846071,0.0001186,53.2165,150.4684,94.1776,265.9352,8.1049e-05,1.002e-05,0.0,0 STARLINK-4637,1 53742U 22107AU  23307.86944913  .00001002  00000-0  81049-4 0  9991,2 53742  53.2165 150.4684 0001186  94.1776 265.9352 15.08846071 65242,6917.862,95.437,540.547,538.906,0.0
53742.0,STARLINK-4637,PAYLOAD,2023-11-04 00:02:46,15.08846466,0.0001181,53.2156,149.8735,91.3974,268.7153,0.00012047,1.63e-05,0.0,0 STARLINK-4637,1 53742U 22107AU  23308.00192809  .00001630  00000-0  12047-3 0  9995,2 53742  53.2156 149.8735 0001181  91.3974 268.7153 15.08846466 64488,6917.861,95.437,540.543,538.909,0.0
53742.0,STARLINK-4637,PAYLOAD,2023-11-04 06:24:19,15.0883682,0.0001195,53.2156,148.6838,88.8596,271.2533,4.6383e-05,4.5e-06,0.0,0 STARLINK-4637,1 53742U 22107AU  23308.26689361  .00000450  00000-0  46383-4 0  9997,2 53742  53.2156 148.6838 0001195  88.8596 271.2533 15.08836820 64524,6917.89,95.438,540.582,538.928,0.0
53742.0,STARLINK-4637,PAYLOAD,2023-11-04 20:42:47,15.08838926,0.0001224,53.2156,146.0075,87.3865,272.7268,7.1596e-05,8.52e-06,0.0,0 STARLINK-4637,1 53742U 22107AU  23308.86305451  .00000852  00000-0  71596-4 0  9998,2 53742  53.2156 146.0075 0001224  87.3865 272.7268 15.08838926 65391,6917.884,95.438,540.595,538.902,0.0
53742.0,STARLINK-4637,PAYLOAD,2023-11-04 23:53:34,15.08842482,0.0001234,53.2156,145.4128,87.1919,272.9215,0.00012247,1.662e-05,0.0,0 STARLINK-4637,1 53742U 22107AU  23308.99553297  .00001662  00000-0  12247-3 0  9992,2 53742  53.2156 145.4128 0001234  87.1919 272.9215 15.08842482 65411,6917.873,95.437,540.591,538.884,0.0
53742.0,STARLINK-4637,PAYLOAD,2023-11-05 18:58:11,15.0884937,0.0001425,53.2158,141.8439,88.9385,271.177,0.00035955,5.44e-05,0.0,0 STARLINK-4637,1 53742U 22107AU  23309.79040993  .00005440  00000-0  35955-3 0  9994,2 53742  53.2158 141.8439 0001425  88.9385 271.1770 15.08849370 64752,6917.852,95.437,540.703,538.731,0.0
53742.0,STARLINK-4637,PAYLOAD,2023-11-06 12:27:25,15.08852536,0.0001603,53.2141,138.5774,73.3871,286.7297,0.00026143,3.876e-05,0.0,0 STARLINK-4637,1 53742U 22107AU  23310.51904627  .00003876  00000-0  26143-3 0  9999,2 53742  53.2141 138.5774 0001603  73.3871 286.7297 15.08852536 65648,6917.842,95.437,540.816,538.598,0.0
53742.0,STARLINK-4637,PAYLOAD,2023-11-06 18:48:58,15.08849501,0.0001245,53.2154,137.3836,88.5408,271.5727,0.00015577,2.193e-05,0.0,0 STARLINK-4637,1 53742U 22107AU  23310.78400513  .00002193  00000-0  15577-3 0  9993,2 53742  53.2154 137.3836 0001245  88.5408 271.5727 15.08849501 64900,6917.851,95.437,540.578,538.855,0.0
53742.0,STARLINK-4637,PAYLOAD,2023-11-06 20:24:21,15.08850249,0.0001283,53.2156,137.0862,84.4153,275.6985,0.00016485,2.337e-05,0.0,0 STARLINK-4637,1 53742U 22107AU  23310.85024497  .00002337  00000-0  16485-3 0  9993,2 53742  53.2156 137.0862 0001283  84.4153 275.6985 15.08850249 65691,6917.849,95.437,540.602,538.827,0.0
53742.0,STARLINK-4637,PAYLOAD,2023-11-07 12:18:13,15.08833674,0.000131,53.2154,134.1119,94.9654,265.1488,-7.3887e-05,-1.463e-05,0.0,0 STARLINK-4637,1 53742U 22107AU  23311.51265438 -.00001463  00000-0 -73887-4 0  9990,2 53742  53.2154 134.1119 0001310  94.9654 265.1488 15.08833674 65016,6917.9,95.438,540.671,538.858,0.0
